{
  "norad_id": 49768,
  "name": "STARLINK-3196",
  "history": [
    {
      "epoch": "2026-03-28T20:54:10.036800Z",
      "apogee_km": 540.7892345673199,
      "perigee_km": 538.6968525693437,
      "latitude_deg": -6.970752404362661e-05,
      "longitude_deg": -86.81495474235642,
      "height_km": 540.5553846360268,
      "semi_major_axis_km": 6917.8800435683315,
      "eccentricity": 0.00015123,
      "inclination_deg": 53.218,
      "raan_deg": 53.0121,
      "arg_perigee_deg": 85.4367,
      "mean_anomaly_deg": 274.6797,
      "mean_motion_rev_day": 15.08840113
    },
    {
      "epoch": "2026-03-29T04:51:05.517216Z",
      "apogee_km": 540.7780730829982,
      "perigee_km": 538.6916429306239,
      "latitude_deg": -5.841624005115978e-05,
      "longitude_deg": 152.14084196592538,
      "height_km": 540.5793303386956,
      "semi_major_axis_km": 6917.871858006811,
      "eccentricity": 0.0001508,
      "inclination_deg": 53.2181,
      "raan_deg": 51.5255,
      "arg_perigee_deg": 87.1915,
      "mean_anomaly_deg": 272.9249,
      "mean_motion_rev_day": 15.08842791
    }
  ]
}